ATLAS CENTAUR R/B       
1 06155U 72065B   26058.15292795  .00001428  00000+0  19755-3 0  9992
2 06155  35.0029   7.5002 0034436 281.1586  78.5244 14.77651609839706
SL-8 R/B                
1 08459U 75112B   26058.34739935  .00000216  00000+0  79690-4 0  9999
2 08459  74.0607  37.9365 0014688 135.2728 224.9613 14.38196668630389
SL-3 R/B                
1 10114U 77057B   26058.61746191  .00013838  00000+0  29354-3 0  9997
2 10114  97.5753 230.0982 0006570 326.7613  33.3222 15.45160556666770
SEASAT 1                
1 10967U 78064A   26058.60445857  .00000228  00000+0  10235-3 0  9993
2 10967 108.0135 104.3364 0002049 289.8071  70.2854 14.46151207505056
SL-14 R/B               
1 11267U 79011B   26058.51994736  .00000575  00000+0  54193-4 0  9992
2 11267  82.5222 106.2227 0017658  91.6159 268.7083 14.91894364527263
SL-8 R/B                
1 11574U 79089B   26058.61901119  .00000208  00000+0  70997-4 0  9995
2 11574  74.0677 109.6872 0017065 283.3995  76.5259 14.42343146434650
SL-14 R/B               
1 11672U 80005B   26058.45916681  .00000596  00000+0  57726-4 0  9991
2 11672  82.5163 316.9393 0015251 192.0515 168.0342 14.90916050474964
SL-8 R/B                
1 12139U 81003B   26058.40285368  .00016857  00000+0  43799-3 0  9996
2 12139  82.9400 299.5333 0262732 214.3731 144.0265 15.10532401313122
SL-3 R/B                
1 12465U 81046B   26058.66036127  .00012045  00000+0  28263-3 0  9994
2 12465  81.2323 301.7843 0020365  55.9421 304.3751 15.41691262436886
SL-3 R/B                
1 12904U 81103B   26058.70894498  .00005211  00000+0  23188-3 0  9992
2 12904  81.1566 225.1401 0012741 322.1523  37.8811 15.21232576971710
SL-3 R/B                
1 13068U 82013B   26058.65550263  .00005653  00000+0  24570-3 0  9994
2 13068  81.1763 172.5275 0022135 211.4448 148.5462 15.21891105402821
SL-3 R/B                
1 13154U 82039B   26058.65105233  .00002541  00000+0  15334-3 0  9992
2 13154  81.1583 227.5349 0029957 357.1970   2.9082 15.10011195380127
