CCSDS_OMM_VERS = 2.0
CREATION_DATE  = 
ORIGINATOR     = 

OBJECT_NAME    = ATLAS CENTAUR R/B
OBJECT_ID      = 1972-065B
CENTER_NAME    = EARTH
REF_FRAME      = TEME
TIME_SYSTEM    = UTC
MEAN_ELEMENT_THEORY = SGP/SGP4

EPOCH          = 2026-02-27T03:40:12.974880
MEAN_MOTION    = 14.77651609
ECCENTRICITY   = .0034436
INCLINATION    = 35.0029
RA_OF_ASC_NODE = 7.5002
ARG_OF_PERICENTER = 281.1586
MEAN_ANOMALY   = 78.5244

EPHEMERIS_TYPE = 0
CLASSIFICATION_TYPE = U
NORAD_CAT_ID   = 6155
ELEMENT_SET_NO = 999
REV_AT_EPOCH   = 83970
BSTAR          = .19755E-3
MEAN_MOTION_DOT = .1428E-4
MEAN_MOTION_DDOT = 0

CCSDS_OMM_VERS = 2.0
CREATION_DATE  = 
ORIGINATOR     = 

OBJECT_NAME    = SL-8 R/B
OBJECT_ID      = 1975-112B
CENTER_NAME    = EARTH
REF_FRAME      = TEME
TIME_SYSTEM    = UTC
MEAN_ELEMENT_THEORY = SGP/SGP4

EPOCH          = 2026-02-27T08:20:15.303840
MEAN_MOTION    = 14.38196668
ECCENTRICITY   = .0014688
INCLINATION    = 74.0607
RA_OF_ASC_NODE = 37.9365
ARG_OF_PERICENTER = 135.2728
MEAN_ANOMALY   = 224.9613

EPHEMERIS_TYPE = 0
CLASSIFICATION_TYPE = U
NORAD_CAT_ID   = 8459
ELEMENT_SET_NO = 999
REV_AT_EPOCH   = 63038
BSTAR          = .7969E-4
MEAN_MOTION_DOT = .216E-5
MEAN_MOTION_DDOT = 0

CCSDS_OMM_VERS = 2.0
CREATION_DATE  = 
ORIGINATOR     = 

OBJECT_NAME    = SL-3 R/B
OBJECT_ID      = 1977-057B
CENTER_NAME    = EARTH
REF_FRAME      = TEME
TIME_SYSTEM    = UTC
MEAN_ELEMENT_THEORY = SGP/SGP4

EPOCH          = 2026-02-27T14:49:08.709024
MEAN_MOTION    = 15.45160556
ECCENTRICITY   = .000657
INCLINATION    = 97.5753
RA_OF_ASC_NODE = 230.0982
ARG_OF_PERICENTER = 326.7613
MEAN_ANOMALY   = 33.3222

EPHEMERIS_TYPE = 0
CLASSIFICATION_TYPE = U
NORAD_CAT_ID   = 10114
ELEMENT_SET_NO = 999
REV_AT_EPOCH   = 66677
BSTAR          = .29354E-3
MEAN_MOTION_DOT = .13838E-3
MEAN_MOTION_DDOT = 0

CCSDS_OMM_VERS = 2.0
CREATION_DATE  = 
ORIGINATOR     = 

OBJECT_NAME    = SEASAT 1
OBJECT_ID      = 1978-064A
CENTER_NAME    = EARTH
REF_FRAME      = TEME
TIME_SYSTEM    = UTC
MEAN_ELEMENT_THEORY = SGP/SGP4

EPOCH          = 2026-02-27T14:30:25.220448
MEAN_MOTION    = 14.46151207
ECCENTRICITY   = .0002049
INCLINATION    = 108.0135
RA_OF_ASC_NODE = 104.3364
ARG_OF_PERICENTER = 289.8071
MEAN_ANOMALY   = 70.2854

EPHEMERIS_TYPE = 0
CLASSIFICATION_TYPE = U
NORAD_CAT_ID   = 10967
ELEMENT_SET_NO = 999
REV_AT_EPOCH   = 50505
BSTAR          = .10235E-3
MEAN_MOTION_DOT = .228E-5
MEAN_MOTION_DDOT = 0

CCSDS_OMM_VERS = 2.0
CREATION_DATE  = 
ORIGINATOR     = 

OBJECT_NAME    = SL-14 R/B
OBJECT_ID      = 1979-011B
CENTER_NAME    = EARTH
REF_FRAME      = TEME
TIME_SYSTEM    = UTC
MEAN_ELEMENT_THEORY = SGP/SGP4

EPOCH          = 2026-02-27T12:28:43.451904
MEAN_MOTION    = 14.91894364
ECCENTRICITY   = .0017658
INCLINATION    = 82.5222
RA_OF_ASC_NODE = 106.2227
ARG_OF_PERICENTER = 91.6159
MEAN_ANOMALY   = 268.7083

EPHEMERIS_TYPE = 0
CLASSIFICATION_TYPE = U
NORAD_CAT_ID   = 11267
ELEMENT_SET_NO = 999
REV_AT_EPOCH   = 52726
BSTAR          = .54193E-4
MEAN_MOTION_DOT = .575E-5
MEAN_MOTION_DDOT = 0

CCSDS_OMM_VERS = 2.0
CREATION_DATE  = 
ORIGINATOR     = 

OBJECT_NAME    = SL-8 R/B
OBJECT_ID      = 1979-089B
CENTER_NAME    = EARTH
REF_FRAME      = TEME
TIME_SYSTEM    = UTC
MEAN_ELEMENT_THEORY = SGP/SGP4

EPOCH          = 2026-02-27T14:51:22.566816
MEAN_MOTION    = 14.42343146
ECCENTRICITY   = .0017065
INCLINATION    = 74.0677
RA_OF_ASC_NODE = 109.6872
ARG_OF_PERICENTER = 283.3995
MEAN_ANOMALY   = 76.5259

EPHEMERIS_TYPE = 0
CLASSIFICATION_TYPE = U
NORAD_CAT_ID   = 11574
ELEMENT_SET_NO = 999
REV_AT_EPOCH   = 43465
BSTAR          = .70997E-4
MEAN_MOTION_DOT = .208E-5
MEAN_MOTION_DDOT = 0

CCSDS_OMM_VERS = 2.0
CREATION_DATE  = 
ORIGINATOR     = 

OBJECT_NAME    = SL-14 R/B
OBJECT_ID      = 1980-005B
CENTER_NAME    = EARTH
REF_FRAME      = TEME
TIME_SYSTEM    = UTC
MEAN_ELEMENT_THEORY = SGP/SGP4

EPOCH          = 2026-02-27T11:01:12.012384
MEAN_MOTION    = 14.90916050
ECCENTRICITY   = .0015251
INCLINATION    = 82.5163
RA_OF_ASC_NODE = 316.9393
ARG_OF_PERICENTER = 192.0515
MEAN_ANOMALY   = 168.0342

EPHEMERIS_TYPE = 0
CLASSIFICATION_TYPE = U
NORAD_CAT_ID   = 11672
ELEMENT_SET_NO = 999
REV_AT_EPOCH   = 47496
BSTAR          = .57726E-4
MEAN_MOTION_DOT = .596E-5
MEAN_MOTION_DDOT = 0

CCSDS_OMM_VERS = 2.0
CREATION_DATE  = 
ORIGINATOR     = 

OBJECT_NAME    = SL-8 R/B
OBJECT_ID      = 1981-003B
CENTER_NAME    = EARTH
REF_FRAME      = TEME
TIME_SYSTEM    = UTC
MEAN_ELEMENT_THEORY = SGP/SGP4

EPOCH          = 2026-02-27T09:40:06.557952
MEAN_MOTION    = 15.10532401
ECCENTRICITY   = .0262732
INCLINATION    = 82.9400
RA_OF_ASC_NODE = 299.5333
ARG_OF_PERICENTER = 214.3731
MEAN_ANOMALY   = 144.0265

EPHEMERIS_TYPE = 0
CLASSIFICATION_TYPE = U
NORAD_CAT_ID   = 12139
ELEMENT_SET_NO = 999
REV_AT_EPOCH   = 31312
BSTAR          = .43799E-3
MEAN_MOTION_DOT = .16857E-3
MEAN_MOTION_DDOT = 0

CCSDS_OMM_VERS = 2.0
CREATION_DATE  = 
ORIGINATOR     = 

OBJECT_NAME    = SL-3 R/B
OBJECT_ID      = 1981-046B
CENTER_NAME    = EARTH
REF_FRAME      = TEME
TIME_SYSTEM    = UTC
MEAN_ELEMENT_THEORY = SGP/SGP4

EPOCH          = 2026-02-27T15:50:55.213728
MEAN_MOTION    = 15.41691262
ECCENTRICITY   = .0020365
INCLINATION    = 81.2323
RA_OF_ASC_NODE = 301.7843
ARG_OF_PERICENTER = 55.9421
MEAN_ANOMALY   = 304.3751

EPHEMERIS_TYPE = 0
CLASSIFICATION_TYPE = U
NORAD_CAT_ID   = 12465
ELEMENT_SET_NO = 999
REV_AT_EPOCH   = 43688
BSTAR          = .28263E-3
MEAN_MOTION_DOT = .12045E-3
MEAN_MOTION_DDOT = 0

CCSDS_OMM_VERS = 2.0
CREATION_DATE  = 
ORIGINATOR     = 

OBJECT_NAME    = SL-3 R/B
OBJECT_ID      = 1981-103B
CENTER_NAME    = EARTH
REF_FRAME      = TEME
TIME_SYSTEM    = UTC
MEAN_ELEMENT_THEORY = SGP/SGP4

EPOCH          = 2026-02-27T17:00:52.846272
MEAN_MOTION    = 15.21232576
ECCENTRICITY   = .0012741
INCLINATION    = 81.1566
RA_OF_ASC_NODE = 225.1401
ARG_OF_PERICENTER = 322.1523
MEAN_ANOMALY   = 37.8811

EPHEMERIS_TYPE = 0
CLASSIFICATION_TYPE = U
NORAD_CAT_ID   = 12904
ELEMENT_SET_NO = 999
REV_AT_EPOCH   = 97171
BSTAR          = .23188E-3
MEAN_MOTION_DOT = .5211E-4
MEAN_MOTION_DDOT = 0

CCSDS_OMM_VERS = 2.0
CREATION_DATE  = 
ORIGINATOR     = 

OBJECT_NAME    = SL-3 R/B
OBJECT_ID      = 1982-013B
CENTER_NAME    = EARTH
REF_FRAME      = TEME
TIME_SYSTEM    = UTC
MEAN_ELEMENT_THEORY = SGP/SGP4

EPOCH          = 2026-02-27T15:43:55.427232
MEAN_MOTION    = 15.21891105
ECCENTRICITY   = .0022135
INCLINATION    = 81.1763
RA_OF_ASC_NODE = 172.5275
ARG_OF_PERICENTER = 211.4448
MEAN_ANOMALY   = 148.5462

EPHEMERIS_TYPE = 0
CLASSIFICATION_TYPE = U
NORAD_CAT_ID   = 13068
ELEMENT_SET_NO = 999
REV_AT_EPOCH   = 40282
BSTAR          = .2457E-3
MEAN_MOTION_DOT = .5653E-4
MEAN_MOTION_DDOT = 0

CCSDS_OMM_VERS = 2.0
CREATION_DATE  = 
ORIGINATOR     = 

OBJECT_NAME    = SL-3 R/B
OBJECT_ID      = 1982-039B
CENTER_NAME    = EARTH
REF_FRAME      = TEME
TIME_SYSTEM    = UTC
MEAN_ELEMENT_THEORY = SGP/SGP4

EPOCH          = 2026-02-27T15:37:30.921312
MEAN_MOTION    = 15.10011195
ECCENTRICITY   = .0029957
INCLINATION    = 81.1583
RA_OF_ASC_NODE = 227.5349
ARG_OF_PERICENTER = 357.1970
MEAN_ANOMALY   = 2.9082

EPHEMERIS_TYPE = 0
CLASSIFICATION_TYPE = U
NORAD_CAT_ID   = 13154
ELEMENT_SET_NO = 999
REV_AT_EPOCH   = 38012
BSTAR          = .15334E-3
MEAN_MOTION_DOT = .2541E-4
MEAN_MOTION_DDOT = 0

